CCSDS_OMM_VERS = 2.0
CREATION_DATE  = 
ORIGINATOR     = 

OBJECT_NAME    = UNKNOWN
OBJECT_ID      = 
CENTER_NAME    = EARTH
REF_FRAME      = TEME
TIME_SYSTEM    = UTC
MEAN_ELEMENT_THEORY = SGP/SGP4

EPOCH          = 2025-11-25T16:03:16.272576
MEAN_MOTION    = 15.03535740
ECCENTRICITY   = .0008393
INCLINATION    = 85.8731
RA_OF_ASC_NODE = 208.4720
ARG_OF_PERICENTER = 342.0422
MEAN_ANOMALY   = 18.0513

EPHEMERIS_TYPE = 0
CLASSIFICATION_TYPE = U
NORAD_CAT_ID   = 81343
ELEMENT_SET_NO = 999
REV_AT_EPOCH   = 45175
BSTAR          = .62548E-3
MEAN_MOTION_DOT = .8571E-4
MEAN_MOTION_DDOT = 0

CCSDS_OMM_VERS = 2.0
CREATION_DATE  = 
ORIGINATOR     = 

OBJECT_NAME    = UNKNOWN
OBJECT_ID      = 
CENTER_NAME    = EARTH
REF_FRAME      = TEME
TIME_SYSTEM    = UTC
MEAN_ELEMENT_THEORY = SGP/SGP4

EPOCH          = 2025-11-25T08:14:39.207840
MEAN_MOTION    = 13.78792920
ECCENTRICITY   = .0115496
INCLINATION    = 66.7976
RA_OF_ASC_NODE = 93.6300
ARG_OF_PERICENTER = 335.0340
MEAN_ANOMALY   = 24.5172

EPHEMERIS_TYPE = 0
CLASSIFICATION_TYPE = U
NORAD_CAT_ID   = 81359
ELEMENT_SET_NO = 999
REV_AT_EPOCH   = 60308
BSTAR          = .86426E-3
MEAN_MOTION_DOT = .85E-5
MEAN_MOTION_DDOT = 0

CCSDS_OMM_VERS = 2.0
CREATION_DATE  = 
ORIGINATOR     = 

OBJECT_NAME    = UNKNOWN
OBJECT_ID      = 
CENTER_NAME    = EARTH
REF_FRAME      = TEME
TIME_SYSTEM    = UTC
MEAN_ELEMENT_THEORY = SGP/SGP4

EPOCH          = 2025-11-26T03:12:58.562496
MEAN_MOTION    = 13.45103133
ECCENTRICITY   = .0709616
INCLINATION    = 65.8824
RA_OF_ASC_NODE = 111.2952
ARG_OF_PERICENTER = 89.7816
MEAN_ANOMALY   = 278.4464

EPHEMERIS_TYPE = 0
CLASSIFICATION_TYPE = U
NORAD_CAT_ID   = 81366
ELEMENT_SET_NO = 999
REV_AT_EPOCH   = 6372
BSTAR          = .43494E-3
MEAN_MOTION_DOT = .1138E-4
MEAN_MOTION_DDOT = 0

CCSDS_OMM_VERS = 2.0
CREATION_DATE  = 
ORIGINATOR     = 

OBJECT_NAME    = UNKNOWN
OBJECT_ID      = 
CENTER_NAME    = EARTH
REF_FRAME      = TEME
TIME_SYSTEM    = UTC
MEAN_ELEMENT_THEORY = SGP/SGP4

EPOCH          = 2025-11-15T00:08:53.598624
MEAN_MOTION    = 14.70005974
ECCENTRICITY   = .0071566
INCLINATION    = 98.8150
RA_OF_ASC_NODE = 53.2084
ARG_OF_PERICENTER = 91.1648
MEAN_ANOMALY   = 269.7756

EPHEMERIS_TYPE = 0
CLASSIFICATION_TYPE = U
NORAD_CAT_ID   = 81371
ELEMENT_SET_NO = 999
REV_AT_EPOCH   = 63776
BSTAR          = .87849E-3
MEAN_MOTION_DOT = .5423E-4
MEAN_MOTION_DDOT = 0

CCSDS_OMM_VERS = 2.0
CREATION_DATE  = 
ORIGINATOR     = 

OBJECT_NAME    = UNKNOWN
OBJECT_ID      = 
CENTER_NAME    = EARTH
REF_FRAME      = TEME
TIME_SYSTEM    = UTC
MEAN_ELEMENT_THEORY = SGP/SGP4

EPOCH          = 2025-11-25T20:19:09.912864
MEAN_MOTION    = 14.36020591
ECCENTRICITY   = .0084862
INCLINATION    = 71.0489
RA_OF_ASC_NODE = 33.1848
ARG_OF_PERICENTER = 113.2186
MEAN_ANOMALY   = 247.7913

EPHEMERIS_TYPE = 0
CLASSIFICATION_TYPE = U
NORAD_CAT_ID   = 81386
ELEMENT_SET_NO = 999
REV_AT_EPOCH   = 62181
BSTAR          = .21533E-2
MEAN_MOTION_DOT = .6482E-4
MEAN_MOTION_DDOT = 0

CCSDS_OMM_VERS = 2.0
CREATION_DATE  = 
ORIGINATOR     = 

OBJECT_NAME    = UNKNOWN
OBJECT_ID      = 
CENTER_NAME    = EARTH
REF_FRAME      = TEME
TIME_SYSTEM    = UTC
MEAN_ELEMENT_THEORY = SGP/SGP4

EPOCH          = 2025-11-27T12:23:32.726400
MEAN_MOTION    = 12.35643906
ECCENTRICITY   = .0165588
INCLINATION    = 103.1051
RA_OF_ASC_NODE = 219.2229
ARG_OF_PERICENTER = 172.4295
MEAN_ANOMALY   = 187.9317

EPHEMERIS_TYPE = 0
CLASSIFICATION_TYPE = U
NORAD_CAT_ID   = 81390
ELEMENT_SET_NO = 999
REV_AT_EPOCH   = 49821
BSTAR          = -.26267E-2
MEAN_MOTION_DOT = -.398E-5
MEAN_MOTION_DDOT = 0

CCSDS_OMM_VERS = 2.0
CREATION_DATE  = 
ORIGINATOR     = 

OBJECT_NAME    = UNKNOWN
OBJECT_ID      = 
CENTER_NAME    = EARTH
REF_FRAME      = TEME
TIME_SYSTEM    = UTC
MEAN_ELEMENT_THEORY = SGP/SGP4

EPOCH          = 2025-11-24T18:15:25.262784
MEAN_MOTION    = 13.81512910
ECCENTRICITY   = .0038835
INCLINATION    = 100.3969
RA_OF_ASC_NODE = 315.1742
ARG_OF_PERICENTER = 74.1979
MEAN_ANOMALY   = 102.8802

EPHEMERIS_TYPE = 0
CLASSIFICATION_TYPE = U
NORAD_CAT_ID   = 81392
ELEMENT_SET_NO = 999
REV_AT_EPOCH   = 59969
BSTAR          = .34162E-2
MEAN_MOTION_DOT = .361E-4
MEAN_MOTION_DDOT = 0

CCSDS_OMM_VERS = 2.0
CREATION_DATE  = 
ORIGINATOR     = 

OBJECT_NAME    = UNKNOWN
OBJECT_ID      = 
CENTER_NAME    = EARTH
REF_FRAME      = TEME
TIME_SYSTEM    = UTC
MEAN_ELEMENT_THEORY = SGP/SGP4

EPOCH          = 2025-11-02T08:27:48.111552
MEAN_MOTION    = 13.88686156
ECCENTRICITY   = .0158545
INCLINATION    = 99.4680
RA_OF_ASC_NODE = 353.8711
ARG_OF_PERICENTER = 331.9698
MEAN_ANOMALY   = 27.2987

EPHEMERIS_TYPE = 0
CLASSIFICATION_TYPE = U
NORAD_CAT_ID   = 81405
ELEMENT_SET_NO = 999
REV_AT_EPOCH   = 55619
BSTAR          = .1262E-2
MEAN_MOTION_DOT = .1634E-4
MEAN_MOTION_DDOT = 0

CCSDS_OMM_VERS = 2.0
CREATION_DATE  = 
ORIGINATOR     = 

OBJECT_NAME    = UNKNOWN
OBJECT_ID      = 
CENTER_NAME    = EARTH
REF_FRAME      = TEME
TIME_SYSTEM    = UTC
MEAN_ELEMENT_THEORY = SGP/SGP4

EPOCH          = 2025-11-23T00:57:07.067232
MEAN_MOTION    = 13.12066449
ECCENTRICITY   = .0865826
INCLINATION    = 65.8117
RA_OF_ASC_NODE = 199.1210
ARG_OF_PERICENTER = 328.4185
MEAN_ANOMALY   = 26.7526

EPHEMERIS_TYPE = 0
CLASSIFICATION_TYPE = U
NORAD_CAT_ID   = 81406
ELEMENT_SET_NO = 999
REV_AT_EPOCH   = 53109
BSTAR          = .75033E-3
MEAN_MOTION_DOT = .1826E-4
MEAN_MOTION_DDOT = 0

CCSDS_OMM_VERS = 2.0
CREATION_DATE  = 
ORIGINATOR     = 

OBJECT_NAME    = UNKNOWN
OBJECT_ID      = 
CENTER_NAME    = EARTH
REF_FRAME      = TEME
TIME_SYSTEM    = UTC
MEAN_ELEMENT_THEORY = SGP/SGP4

EPOCH          = 2025-11-26T15:27:02.017440
MEAN_MOTION    = 14.06904286
ECCENTRICITY   = .0085305
INCLINATION    = 98.7517
RA_OF_ASC_NODE = 213.2944
ARG_OF_PERICENTER = 83.2452
MEAN_ANOMALY   = 277.8416

EPHEMERIS_TYPE = 0
CLASSIFICATION_TYPE = U
NORAD_CAT_ID   = 81427
ELEMENT_SET_NO = 999
REV_AT_EPOCH   = 54950
BSTAR          = .50938E-3
MEAN_MOTION_DOT = .836E-5
MEAN_MOTION_DDOT = 0

CCSDS_OMM_VERS = 2.0
CREATION_DATE  = 
ORIGINATOR     = 

OBJECT_NAME    = UNKNOWN
OBJECT_ID      = 
CENTER_NAME    = EARTH
REF_FRAME      = TEME
TIME_SYSTEM    = UTC
MEAN_ELEMENT_THEORY = SGP/SGP4

EPOCH          = 2025-11-19T22:14:08.931264
MEAN_MOTION    = 13.54502073
ECCENTRICITY   = .0042047
INCLINATION    = 100.3079
RA_OF_ASC_NODE = 194.6442
ARG_OF_PERICENTER = 128.3151
MEAN_ANOMALY   = 232.1776

EPHEMERIS_TYPE = 0
CLASSIFICATION_TYPE = U
NORAD_CAT_ID   = 81438
ELEMENT_SET_NO = 999
REV_AT_EPOCH   = 58885
BSTAR          = .48489E-2
MEAN_MOTION_DOT = .3284E-4
MEAN_MOTION_DDOT = 0

CCSDS_OMM_VERS = 2.0
CREATION_DATE  = 
ORIGINATOR     = 

OBJECT_NAME    = UNKNOWN
OBJECT_ID      = 
CENTER_NAME    = EARTH
REF_FRAME      = TEME
TIME_SYSTEM    = UTC
MEAN_ELEMENT_THEORY = SGP/SGP4

EPOCH          = 2025-11-25T20:29:58.027776
MEAN_MOTION    = 12.62599103
ECCENTRICITY   = .0604022
INCLINATION    = 67.1576
RA_OF_ASC_NODE = 174.4474
ARG_OF_PERICENTER = 213.4802
MEAN_ANOMALY   = 142.6631

EPHEMERIS_TYPE = 0
CLASSIFICATION_TYPE = U
NORAD_CAT_ID   = 81439
ELEMENT_SET_NO = 999
REV_AT_EPOCH   = 25976
BSTAR          = .74959E-3
MEAN_MOTION_DOT = .22E-5
MEAN_MOTION_DDOT = 0

CCSDS_OMM_VERS = 2.0
CREATION_DATE  = 
ORIGINATOR     = 

OBJECT_NAME    = UNKNOWN
OBJECT_ID      = 
CENTER_NAME    = EARTH
REF_FRAME      = TEME
TIME_SYSTEM    = UTC
MEAN_ELEMENT_THEORY = SGP/SGP4

EPOCH          = 2025-11-27T04:20:57.922080
MEAN_MOTION    = 14.97317364
ECCENTRICITY   = .00189
INCLINATION    = 66.7971
RA_OF_ASC_NODE = 37.0345
ARG_OF_PERICENTER = 148.7639
MEAN_ANOMALY   = 211.4621

EPHEMERIS_TYPE = 0
CLASSIFICATION_TYPE = U
NORAD_CAT_ID   = 81449
ELEMENT_SET_NO = 999
REV_AT_EPOCH   = 63122
BSTAR          = .56389E-2
MEAN_MOTION_DOT = .66346E-3
MEAN_MOTION_DDOT = 0

CCSDS_OMM_VERS = 2.0
CREATION_DATE  = 
ORIGINATOR     = 

OBJECT_NAME    = UNKNOWN
OBJECT_ID      = 
CENTER_NAME    = EARTH
REF_FRAME      = TEME
TIME_SYSTEM    = UTC
MEAN_ELEMENT_THEORY = SGP/SGP4

EPOCH          = 2025-11-26T16:59:25.067328
MEAN_MOTION    = 14.27966567
ECCENTRICITY   = .0148336
INCLINATION    = 98.9484
RA_OF_ASC_NODE = 242.2011
ARG_OF_PERICENTER = 44.6978
MEAN_ANOMALY   = 346.2812

EPHEMERIS_TYPE = 0
CLASSIFICATION_TYPE = U
NORAD_CAT_ID   = 81478
ELEMENT_SET_NO = 999
REV_AT_EPOCH   = 62065
BSTAR          = .1997E-2
MEAN_MOTION_DOT = .5525E-4
MEAN_MOTION_DDOT = 0

CCSDS_OMM_VERS = 2.0
CREATION_DATE  = 
ORIGINATOR     = 

OBJECT_NAME    = UNKNOWN
OBJECT_ID      = 
CENTER_NAME    = EARTH
REF_FRAME      = TEME
TIME_SYSTEM    = UTC
MEAN_ELEMENT_THEORY = SGP/SGP4

EPOCH          = 2025-11-27T03:12:58.650624
MEAN_MOTION    = 13.56512156
ECCENTRICITY   = .0044995
INCLINATION    = 100.0020
RA_OF_ASC_NODE = 203.5592
ARG_OF_PERICENTER = 38.6832
MEAN_ANOMALY   = 114.3274

EPHEMERIS_TYPE = 0
CLASSIFICATION_TYPE = U
NORAD_CAT_ID   = 81488
ELEMENT_SET_NO = 999
REV_AT_EPOCH   = 59451
BSTAR          = .40916E-3
MEAN_MOTION_DOT = .244E-5
MEAN_MOTION_DDOT = 0

CCSDS_OMM_VERS = 2.0
CREATION_DATE  = 
ORIGINATOR     = 

OBJECT_NAME    = UNKNOWN
OBJECT_ID      = 
CENTER_NAME    = EARTH
REF_FRAME      = TEME
TIME_SYSTEM    = UTC
MEAN_ELEMENT_THEORY = SGP/SGP4

EPOCH          = 2025-11-24T23:35:08.590848
MEAN_MOTION    = 13.83968516
ECCENTRICITY   = .0029298
INCLINATION    = 100.2994
RA_OF_ASC_NODE = 221.9517
ARG_OF_PERICENTER = 58.0548
MEAN_ANOMALY   = 314.1036

EPHEMERIS_TYPE = 0
CLASSIFICATION_TYPE = U
NORAD_CAT_ID   = 81497
ELEMENT_SET_NO = 999
REV_AT_EPOCH   = 21384
BSTAR          = .44271E-2
MEAN_MOTION_DOT = .4886E-4
MEAN_MOTION_DDOT = 0

